[{"OBJECT_NAME":"STARLINK-2364","OBJECT_ID":"2021-021AW","EPOCH":"2026-03-09T17:07:11.006112","MEAN_MOTION":15.30178556,"ECCENTRICITY":9.198e-5,"INCLINATION":53.1596,"RA_OF_ASC_NODE":255.1801,"ARG_OF_PERICENTER":95.2862,"MEAN_ANOMALY":264.8244,"EPHEMERIS_TYPE":0,"CLASSIFICATION_TYPE":"U","NORAD_CAT_ID":47904,"ELEMENT_SET_NO":999,"REV_AT_EPOCH":27641,"BSTAR":-7.6354232e-5,"MEAN_MOTION_DOT":-2.618e-5,"MEAN_MOTION_DDOT":0},{"OBJECT_NAME":"MESON-1","OBJECT_ID":"2024-043AK","EPOCH":"2026-03-09T21:36:16.481664","MEAN_MOTION":15.29893494,"ECCENTRICITY":0.00095452,"INCLINATION":97.5469,"RA_OF_ASC_NODE":205.2839,"ARG_OF_PERICENTER":227.1432,"MEAN_ANOMALY":132.9007,"EPHEMERIS_TYPE":0,"CLASSIFICATION_TYPE":"U","NORAD_CAT_ID":59131,"ELEMENT_SET_NO":999,"REV_AT_EPOCH":11189,"BSTAR":0.0002974823,"MEAN_MOTION_DOT":8.544e-5,"MEAN_MOTION_DDOT":0}]
